{
  "type": "FeatureCollection",
  "features": [
    {
      "type": "Feature",
      "properties": {
        "norad_id": 66373,
        "name": "STARLINK-35809",
        "group": "last-30-days",
        "lat": -51.663701700354785,
        "lon": -158.29351513057605,
        "alt_km": 351.231456658139,
        "timestamp": "2025-12-05T14:45:14.099938+00:00",
        "meta_object_name": "STARLINK-35809",
        "meta_object_id": "2025-254AB",
        "meta_epoch": "2025-12-04T13:17:08.403936",
        "meta_mean_motion": 15.74247855,
        "meta_eccentricity": 0.0002466,
        "meta_inclination": 53.1569,
        "meta_ra_of_asc_node": 315.4998,
        "meta_arg_of_pericenter": 35.503,
        "meta_mean_anomaly": 324.6154,
        "meta_ephemeris_type": 0,
        "meta_classification_type": "U",
        "meta_norad_cat_id": 66373,
        "meta_element_set_no": 999,
        "meta_rev_at_epoch": 439,
        "meta_bstar": 0.0016939,
        "meta_mean_motion_dot": 0.00255782,
        "meta_mean_motion_ddot": 0,
        "tle_line1": "1 66373U 25254AB  25338.55356949  .00255782  00000+0  16939-2 0  9998",
        "tle_line2": "2 66373  53.1569 315.4998 0002466  35.5030 324.6154 15.74247855  4398"
      },
      "geometry": {
        "type": "Point",
        "coordinates": [
          -158.29351513057605,
          -51.663701700354785
        ]
      }
    },
    {
      "type": "Feature",
      "properties": {
        "norad_id": 66374,
        "name": "STARLINK-35831",
        "group": "last-30-days",
        "lat": -52.23398210462844,
        "lon": -154.34730324480878,
        "alt_km": 350.1898306387229,
        "timestamp": "2025-12-05T14:45:14.099948+00:00",
        "meta_object_name": "STARLINK-35831",
        "meta_object_id": "2025-254AC",
        "meta_epoch": "2025-12-04T11:45:13.351104",
        "meta_mean_motion": 15.74328879,
        "meta_eccentricity": 9.31e-05,
        "meta_inclination": 53.1571,
        "meta_ra_of_asc_node": 315.8123,
        "meta_arg_of_pericenter": 87.3429,
        "meta_mean_anomaly": 272.7697,
        "meta_ephemeris_type": 0,
        "meta_classification_type": "U",
        "meta_norad_cat_id": 66374,
        "meta_element_set_no": 999,
        "meta_rev_at_epoch": 438,
        "meta_bstar": 0.0017955,
        "meta_mean_motion_dot": 0.00272652,
        "meta_mean_motion_ddot": 0,
        "tle_line1": "1 66374U 25254AC  25338.48973786  .00272652  00000+0  17955-2 0  9999",
        "tle_line2": "2 66374  53.1571 315.8123 0000931  87.3429 272.7697 15.74328879  4388"
      },
      "geometry": {
        "type": "Point",
        "coordinates": [
          -154.34730324480878,
          -52.23398210462844
        ]
      }
    },
    {
      "type": "Feature",
      "properties": {
        "norad_id": 66375,
        "name": "STARLINK-35826",
        "group": "last-30-days",
        "lat": -52.57728095392079,
        "lon": -151.27974771897394,
        "alt_km": 349.6258845878392,
        "timestamp": "2025-12-05T14:45:14.099959+00:00",
        "meta_object_name": "STARLINK-35826",
        "meta_object_id": "2025-254AD",
        "meta_epoch": "2025-12-04T11:44:44.246400",
        "meta_mean_motion": 15.74318171,
        "meta_eccentricity": 0.0001315,
        "meta_inclination": 53.1566,
        "meta_ra_of_asc_node": 315.8103,
        "meta_arg_of_pericenter": 162.131,
        "meta_mean_anomaly": 197.9756,
        "meta_ephemeris_type": 0,
        "meta_classification_type": "U",
        "meta_norad_cat_id": 66375,
        "meta_element_set_no": 999,
        "meta_rev_at_epoch": 438,
        "meta_bstar": 0.0018459,
        "meta_mean_motion_dot": 0.00280457,
        "meta_mean_motion_ddot": 0,
        "tle_line1": "1 66375U 25254AD  25338.48940100  .00280457  00000+0  18459-2 0  9996",
        "tle_line2": "2 66375  53.1566 315.8103 0001315 162.1310 197.9756 15.74318171  4387"
      },
      "geometry": {
        "type": "Point",
        "coordinates": [
          -151.27974771897394,
          -52.57728095392079
        ]
      }
    },
    {
      "type": "Feature",
      "properties": {
        "norad_id": 66376,
        "name": "SHIYAN-32 01",
        "group": "last-30-days",
        "lat": -46.88067005746202,
        "lon": 158.29818159603892,
        "alt_km": 442.92996071289326,
        "timestamp": "2025-12-05T14:45:14.099969+00:00",
        "meta_object_name": "SHIYAN-32 01",
        "meta_object_id": "2025-255A",
        "meta_epoch": "2025-12-04T17:16:03.464256",
        "meta_mean_motion": 15.42376261,
        "meta_eccentricity": 0.001346,
        "meta_inclination": 52.9961,
        "meta_ra_of_asc_node": 216.2015,
        "meta_arg_of_pericenter": 17.3744,
        "meta_mean_anomaly": 342.7717,
        "meta_ephemeris_type": 0,
        "meta_classification_type": "U",
        "meta_norad_cat_id": 66376,
        "meta_element_set_no": 999,
        "meta_rev_at_epoch": 411,
        "meta_bstar": 0.00079382,
        "meta_mean_motion_dot": 0.00034646,
        "meta_mean_motion_ddot": 0,
        "tle_line1": "1 66376U 25255A   25338.71948454  .00034646  00000+0  79382-3 0  9994",
        "tle_line2": "2 66376  52.9961 216.2015 0013460  17.3744 342.7717 15.42376261  4113"
      },
      "geometry": {
        "type": "Point",
        "coordinates": [
          158.29818159603892,
          -46.88067005746202
        ]
      }
    },
    {
      "type": "Feature",
      "properties": {
        "norad_id": 66377,
        "name": "CZ-11 DEB",
        "group": "last-30-days",
        "lat": 8.407580072827924,
        "lon": -141.8031916663156,
        "alt_km": 425.10980041156745,
        "timestamp": "2025-12-05T14:45:14.099979+00:00",
        "meta_object_name": "CZ-11 DEB",
        "meta_object_id": "2025-255B",
        "meta_epoch": "2025-12-04T16:57:22.330080",
        "meta_mean_motion": 15.43715835,
        "meta_eccentricity": 0.0013946,
        "meta_inclination": 52.995,
        "meta_ra_of_asc_node": 216.1208,
        "meta_arg_of_pericenter": 14.8324,
        "meta_mean_anomaly": 345.3087,
        "meta_ephemeris_type": 0,
        "meta_classification_type": "U",
        "meta_norad_cat_id": 66377,
        "meta_element_set_no": 999,
        "meta_rev_at_epoch": 397,
        "meta_bstar": 0.0014579,
        "meta_mean_motion_dot": 0.00067248,
        "meta_mean_motion_ddot": 0,
        "tle_line1": "1 66377U 25255B   25338.70650845  .00067248  00000+0  14579-2 0  9998",
        "tle_line2": "2 66377  52.9950 216.1208 0013946  14.8324 345.3087 15.43715835  3977"
      },
      "geometry": {
        "type": "Point",
        "coordinates": [
          -141.8031916663156,
          8.407580072827924
        ]
      }
    },
    {
      "type": "Feature",
      "properties": {
        "norad_id": 66378,
        "name": "SHIYAN-32 02",
        "group": "last-30-days",
        "lat": 33.45789835754956,
        "lon": -118.37239701276357,
        "alt_km": 421.4591726937033,
        "timestamp": "2025-12-05T14:45:14.099989+00:00",
        "meta_object_name": "SHIYAN-32 02",
        "meta_object_id": "2025-255C",
        "meta_epoch": "2025-12-04T18:22:30.495072",
        "meta_mean_motion": 15.44304916,
        "meta_eccentricity": 0.0012358,
        "meta_inclination": 52.9945,
        "meta_ra_of_asc_node": 215.7783,
        "meta_arg_of_pericenter": 13.1971,
        "meta_mean_anomaly": 346.9354,
        "meta_ephemeris_type": 0,
        "meta_classification_type": "U",
        "meta_norad_cat_id": 66378,
        "meta_element_set_no": 999,
        "meta_rev_at_epoch": 398,
        "meta_bstar": 0.0013647,
        "meta_mean_motion_dot": 0.00064122,
        "meta_mean_motion_ddot": 0,
        "tle_line1": "1 66378U 25255C   25338.76563073  .00064122  00000+0  13647-2 0  9994",
        "tle_line2": "2 66378  52.9945 215.7783 0012358  13.1971 346.9354 15.44304916  3981"
      },
      "geometry": {
        "type": "Point",
        "coordinates": [
          -118.37239701276357,
          33.45789835754956
        ]
      }
    },
    {
      "type": "Feature",
      "properties": {
        "norad_id": 66379,
        "name": "SHIYAN-32 03",
        "group": "last-30-days",
        "lat": -24.884173484181993,
        "lon": -168.59608752303302,
        "alt_km": 434.99623934513784,
        "timestamp": "2025-12-05T14:45:14.100001+00:00",
        "meta_object_name": "SHIYAN-32 03",
        "meta_object_id": "2025-255D",
        "meta_epoch": "2025-12-04T17:07:26.939136",
        "meta_mean_motion": 15.42718811,
        "meta_eccentricity": 0.0015517,
        "meta_inclination": 52.9964,
        "meta_ra_of_asc_node": 216.1651,
        "meta_arg_of_pericenter": 18.3028,
        "meta_mean_anomaly": 341.8531,
        "meta_ephemeris_type": 0,
        "meta_classification_type": "U",
        "meta_norad_cat_id": 66379,
        "meta_element_set_no": 999,
        "meta_rev_at_epoch": 399,
        "meta_bstar": 0.00070572,
        "meta_mean_motion_dot": 0.00031131,
        "meta_mean_motion_ddot": 0,
        "tle_line1": "1 66379U 25255D   25338.71350624  .00031131  00000+0  70572-3 0  9991",
        "tle_line2": "2 66379  52.9964 216.1651 0015517  18.3028 341.8531 15.42718811  3995"
      },
      "geometry": {
        "type": "Point",
        "coordinates": [
          -168.59608752303302,
          -24.884173484181993
        ]
      }
    }
  ]
}